STARLINK-3957           
1 52562U 22051AF  26068.37613367 -.00001817  00000+0 -96119-4 0  9996
2 52562  53.2167 120.5270 0001283  82.2359 277.8779 15.08829814211531
RAISE-4                 
1 67073U 25297B   26068.97636248  .00005682  00000+0  37087-3 0  9993
2 67073  97.4953 219.2703 0012713  22.7159 337.4629 15.08174958 12933
