[{"OBJECT_NAME":"STARLINK-3957","OBJECT_ID":"2022-051AF","EPOCH":"2026-03-09T09:01:37.949088","MEAN_MOTION":15.08829814,"ECCENTRICITY":0.00012835,"INCLINATION":53.2167,"RA_OF_ASC_NODE":120.527,"ARG_OF_PERICENTER":82.2359,"MEAN_ANOMALY":277.8779,"EPHEMERIS_TYPE":0,"CLASSIFICATION_TYPE":"U","NORAD_CAT_ID":52562,"ELEMENT_SET_NO":999,"REV_AT_EPOCH":21153,"BSTAR":-9.6119038e-5,"MEAN_MOTION_DOT":-1.817e-5,"MEAN_MOTION_DDOT":0},{"OBJECT_NAME":"RAISE-4","OBJECT_ID":"2025-297B","EPOCH":"2026-03-09T23:25:57.718272","MEAN_MOTION":15.08174958,"ECCENTRICITY":0.00127133,"INCLINATION":97.4953,"RA_OF_ASC_NODE":219.2703,"ARG_OF_PERICENTER":22.7159,"MEAN_ANOMALY":337.4629,"EPHEMERIS_TYPE":0,"CLASSIFICATION_TYPE":"U","NORAD_CAT_ID":67073,"ELEMENT_SET_NO":999,"REV_AT_EPOCH":1293,"BSTAR":0.00037087145,"MEAN_MOTION_DOT":5.682e-5,"MEAN_MOTION_DDOT":0}]
